ONEWEB-0210             
1 48787U 21045W   24167.93691022  .00000012  00000+0 -14099-5 0  9999
2 48787  87.9039  44.7035 0002695  89.7505 270.3934 13.15547967148178
ONEWEB-0214             
1 48788U 21045X   24167.94642399  .00000123  00000+0  29160-3 0  9999
2 48788  87.9040  44.6903 0002351  93.4736 266.6663 13.15547701148141
ONEWEB-0221             
1 48789U 21045Y   24167.95275400  .00000287  00000+0  72933-3 0  9993
2 48789  87.9043  44.7069 0002112  77.7267 282.4099 13.15550496148232
ONEWEB-0213             
1 48790U 21045Z   24167.94166776  .00000097  00000+0  22288-3 0  9996
2 48790  87.9038  44.7229 0002223  79.2938 280.8442 13.15548854148296
ONEWEB-0212             
1 48791U 21045AA  24167.69051884 -.00000096  00000+0 -28871-3 0  9997
2 48791  87.9043  44.7556 0001798  78.7227 281.4105 13.15549128148251
ONEWEB-0227             
1 48792U 21045AB  24167.68972635 -.00000132  00000+0 -38568-3 0  9998
2 48792  87.9042  44.7714 0002000  78.5863 281.5492 13.15548922148204
ONEWEB-0226             
1 48793U 21045AC  24167.91156081 -.00000130  00000+0 -37941-3 0  9996
2 48793  87.9043  44.7337 0002402  85.2003 274.9402 13.15549033148205
ONEWEB-0224             
1 48794U 21045AD  24167.95117838  .00000196  00000+0  48577-3 0  9995
2 48794  87.9046  44.7469 0002332  52.4785 307.6557 13.15547948148130
